{
  "type": "FeatureCollection",
  "features": [
    {
      "type": "Feature",
      "geometry": {
        "type": "Point",
        "coordinates": [
          8.7992948,
          49.4002662
        ]
      },
      "properties": {
        "osm_id": 278843006,
        "beschränkung": "Kostenfrei",
        "amenity": "fountain",
        "start_date": "1985"
      }
    },
    {
      "type": "Feature",
      "geometry": {
        "type": "Point",
        "coordinates": [
          8.8300133,
          49.3908497
        ]
      },
      "properties": {
        "osm_id": 303544486,
        "beschränkung": "Kostenfrei",
        "amenity": "fountain",
        "natural": "spring"
      }
    },
    {
      "type": "Feature",
      "geometry": {
        "type": "Point",
        "coordinates": [
          8.879058,
          49.4003787
        ]
      },
      "properties": {
        "osm_id": 823567076,
        "beschränkung": "Kostenfrei",
        "amenity": "fountain"
      }
    },
    {
      "type": "Feature",
      "geometry": {
        "type": "Point",
        "coordinates": [
          8.8002522,
          49.39217
        ]
      },
      "properties": {
        "osm_id": 1863723191,
        "beschränkung": "Kostenfrei",
        "amenity": "fountain",
        "drinking_water": "yed",
        "source": "HiRes aerial imagery"
      }
    },
    {
      "type": "Feature",
      "geometry": {
        "type": "Point",
        "coordinates": [
          8.7975078,
          49.3951285
        ]
      },
      "properties": {
        "osm_id": 1863723677,
        "beschränkung": "Kostenfrei",
        "amenity": "fountain",
        "name": "Ölkrug-Brunnen",
        "source:position": "HiRes aerial imagery"
      }
    },
    {
      "type": "Feature",
      "geometry": {
        "type": "Point",
        "coordinates": [
          8.8359733,
          49.3988529
        ]
      },
      "properties": {
        "osm_id": 2290965293,
        "beschränkung": "Kostenfrei",
        "amenity": "fountain",
        "drinking_water": "no",
        "source:geometry": "HiRes aerial imagery"
      }
    },
    {
      "type": "Feature",
      "geometry": {
        "type": "Point",
        "coordinates": [
          8.7689559,
          49.3751825
        ]
      },
      "properties": {
        "osm_id": 2312973398,
        "beschränkung": "Kostenfrei",
        "amenity": "fountain",
        "source:position": "HiRes aerial imagery"
      }
    },
    {
      "type": "Feature",
      "geometry": {
        "type": "Point",
        "coordinates": [
          8.853276,
          49.3891292
        ]
      },
      "properties": {
        "osm_id": 2314453461,
        "beschränkung": "Kostenfrei",
        "amenity": "fountain",
        "source:geometry": "HiRes aerial imagery"
      }
    },
    {
      "type": "Feature",
      "geometry": {
        "type": "Point",
        "coordinates": [
          8.8384852,
          49.3796382
        ]
      },
      "properties": {
        "osm_id": 2324222481,
        "beschränkung": "Kostenfrei",
        "amenity": "fountain",
        "source:geometry": "HiRes aerial imagery"
      }
    },
    {
      "type": "Feature",
      "geometry": {
        "type": "Point",
        "coordinates": [
          8.8583633,
          49.3879768
        ]
      },
      "properties": {
        "osm_id": 2334894969,
        "beschränkung": "Kostenfrei",
        "amenity": "fountain",
        "source:geometry": "HiRes aerial imagery"
      }
    },
    {
      "type": "Feature",
      "geometry": {
        "type": "Point",
        "coordinates": [
          8.7986124,
          49.3988934
        ]
      },
      "properties": {
        "osm_id": 2449678112,
        "beschränkung": "Kostenfrei",
        "amenity": "fountain"
      }
    },
    {
      "type": "Feature",
      "geometry": {
        "type": "Point",
        "coordinates": [
          8.7987103,
          49.399088
        ]
      },
      "properties": {
        "osm_id": 3950722431,
        "beschränkung": "Kostenfrei",
        "amenity": "fountain",
        "source:position": "HiRes aerial imagery"
      }
    },
    {
      "type": "Feature",
      "geometry": {
        "type": "Point",
        "coordinates": [
          8.8374293,
          49.3980643
        ]
      },
      "properties": {
        "osm_id": 4130733130,
        "beschränkung": "Kostenfrei",
        "amenity": "fountain"
      }
    },
    {
      "type": "Feature",
      "geometry": {
        "type": "Point",
        "coordinates": [
          8.8653573,
          49.3936974
        ]
      },
      "properties": {
        "osm_id": 9105211852,
        "beschränkung": "Kostenfrei",
        "amenity": "fountain",
        "drinking_water": "no"
      }
    },
    {
      "type": "Feature",
      "geometry": {
        "type": "Point",
        "coordinates": [
          8.77047372,
          49.37308712
        ]
      },
      "properties": {
        "osm_id": 47930635,
        "beschränkung": "Kostenfrei",
        "amenity": "fountain",
        "building": "yes",
        "description": "Ursprüngliche Quelle versiegt, deshalb Wasser aus dem Bach",
        "drinking_water": "no",
        "name": "Dorfbrunnen",
        "source:geometry": "HiRes aerial imagery"
      }
    },
    {
      "type": "Feature",
      "geometry": {
        "type": "Point",
        "coordinates": [
          8.79935946,
          49.39373382
        ]
      },
      "properties": {
        "osm_id": 123521867,
        "beschränkung": "Kostenfrei",
        "amenity": "fountain",
        "source": "HiRes aerial imagery"
      }
    },
    {
      "type": "Feature",
      "geometry": {
        "type": "Point",
        "coordinates": [
          8.799071355555556,
          49.39395078888889
        ]
      },
      "properties": {
        "osm_id": 123521897,
        "beschränkung": "Kostenfrei",
        "amenity": "fountain",
        "source": "HiRes aerial imagery"
      }
    }
  ]
}