{
  "type": "FeatureCollection",
  "features": [
    {
      "type": "Feature",
      "geometry": {
        "type": "Point",
        "coordinates": [
          8.7708767,
          49.376147333333336
        ]
      },
      "properties": {
        "osm_id": 47083960,
        "beschränkung": "Kostenfrei",
        "addr:city": "Neckargemünd",
        "addr:country": "DE",
        "addr:housenumber": "13",
        "addr:postcode": "69151",
        "addr:street": "Neuer Friedhofweg",
        "amenity": "place_of_worship",
        "building": "chapel",
        "religion": "christian",
        "source:geometry": "HiRes aerial imagery"
      }
    },
    {
      "type": "Feature",
      "geometry": {
        "type": "Point",
        "coordinates": [
          8.805272016842105,
          49.383866577894736
        ]
      },
      "properties": {
        "osm_id": 87290160,
        "beschränkung": "Kostenfrei",
        "addr:city": "Neckargemünd",
        "addr:country": "DE",
        "addr:housenumber": "42",
        "addr:postcode": "69151",
        "addr:street": "Im Spitzerfeld",
        "amenity": "place_of_worship",
        "building": "church",
        "check_date": "2024-09-25",
        "contact:website": "https://www.arche-neckargemuend.de",
        "denomination": "oecumenic",
        "name": "Oekumenisches Kirchenzentrum Arche",
        "opening_hours": "Tu-Fr 09:00-17:00; Sa 09:00-12:00",
        "operator": "Evangelische Kirchengemeinde Neckargemünd",
        "religion": "christian",
        "source": "HiRes aerial imagery",
        "toilets:wheelchair": "yes",
        "wheelchair": "yes"
      }
    },
    {
      "type": "Feature",
      "geometry": {
        "type": "Point",
        "coordinates": [
          8.771032917857143,
          49.37457534285714
        ]
      },
      "properties": {
        "osm_id": 87307876,
        "beschränkung": "Kostenfrei",
        "addr:city": "Neckargemünd",
        "addr:country": "DE",
        "addr:housenumber": "4",
        "addr:postcode": "69151",
        "addr:street": "Schulstraße",
        "amenity": "place_of_worship",
        "building": "church",
        "denomination": "protestant",
        "name": "Christuskirche",
        "religion": "christian",
        "source:housenumber": "Datenquelle: LGL, www.lgl-bw.de",
        "website": "https://www.evangelisch-in-waldhilsbach.de/",
        "wikidata": "Q111033716",
        "wikimedia_commons": "Category:Evangelische Christuskirche (Waldhilsbach)"
      }
    },
    {
      "type": "Feature",
      "geometry": {
        "type": "Point",
        "coordinates": [
          8.771881771428571,
          49.37070752857142
        ]
      },
      "properties": {
        "osm_id": 87321191,
        "beschränkung": "Kostenfrei",
        "addr:city": "Neckargemünd",
        "addr:country": "DE",
        "addr:housenumber": "8",
        "addr:postcode": "69151",
        "addr:street": "Verbindungsweg",
        "building": "church",
        "building:use": "residential",
        "disused:amenity": "place_of_worship",
        "disused:denomination": "new_apostolic",
        "disused:religion": "christian",
        "source:geometry": "HiRes aerial imagery"
      }
    },
    {
      "type": "Feature",
      "geometry": {
        "type": "Point",
        "coordinates": [
          8.836770216666666,
          49.39832357592592
        ]
      },
      "properties": {
        "osm_id": 87385198,
        "beschränkung": "Kostenfrei",
        "amenity": "place_of_worship",
        "building": "church",
        "check_date": "2025-07-05",
        "denomination": "protestant",
        "name": "Evangelische Kirche",
        "religion": "christian",
        "wheelchair": "no",
        "wikidata": "Q107543577"
      }
    },
    {
      "type": "Feature",
      "geometry": {
        "type": "Point",
        "coordinates": [
          8.83668515,
          49.399931125
        ]
      },
      "properties": {
        "osm_id": 87405673,
        "beschränkung": "Kostenfrei",
        "addr:city": "Neckargemünd",
        "addr:country": "DE",
        "addr:housenumber": "40",
        "addr:postcode": "69151",
        "addr:street": "Obere Straße",
        "amenity": "place_of_worship",
        "building": "church",
        "building:material": "sandstone",
        "denomination": "roman_catholic",
        "historic": "building",
        "loc_name": "Katholische Kirche",
        "name": "St. Bartholomäus",
        "religion": "christian",
        "source": "Bing",
        "start_date": "C18",
        "wheelchair": "yes",
        "wikidata": "Q2317500",
        "wikimedia_commons": "Category:St._Bartholomäus_(Dilsberg)",
        "wikipedia": "de:St. Bartholomäus (Dilsberg)"
      }
    },
    {
      "type": "Feature",
      "geometry": {
        "type": "Point",
        "coordinates": [
          8.799566082608695,
          49.393837204347825
        ]
      },
      "properties": {
        "osm_id": 87544665,
        "beschränkung": "Kostenfrei",
        "addr:city": "Neckargemünd",
        "addr:country": "DE",
        "addr:housenumber": "6",
        "addr:postcode": "69151",
        "addr:street": "Marktplatz",
        "amenity": "place_of_worship",
        "building": "yes",
        "check_date": "2024-10-01",
        "denomination": "catholic",
        "historic": "building",
        "name": "Pfarrkirche St. Johannes Nepomuk",
        "religion": "christian",
        "source:geometry": "HiRes aerial imagery",
        "start_date": "1894",
        "wikidata": "Q1435574",
        "wikipedia": "de:St. Johannes Nepomuk (Neckargemünd)"
      }
    },
    {
      "type": "Feature",
      "geometry": {
        "type": "Point",
        "coordinates": [
          8.797295223809524,
          49.39523709523809
        ]
      },
      "properties": {
        "osm_id": 87606633,
        "beschränkung": "Kostenfrei",
        "addr:city": "Neckargemünd",
        "addr:country": "DE",
        "addr:housenumber": "60",
        "addr:postcode": "69151",
        "addr:street": "Hauptstraße",
        "amenity": "place_of_worship",
        "building": "yes",
        "check_date": "2024-10-01",
        "denomination": "lutheran",
        "historic": "building",
        "name": "Sankt Ulrichskirche",
        "religion": "christian",
        "source": "HiRes aerial imagery",
        "start_date": "C16",
        "wikidata": "Q1000328",
        "wikipedia": "de:Ulrichskirche (Neckargemünd)"
      }
    },
    {
      "type": "Feature",
      "geometry": {
        "type": "Point",
        "coordinates": [
          8.859547791666666,
          49.38785421666666
        ]
      },
      "properties": {
        "osm_id": 110002403,
        "beschränkung": "Kostenfrei",
        "amenity": "place_of_worship",
        "building": "church",
        "denomination": "protestant",
        "name": "Evangelische Kirche",
        "religion": "christian",
        "source": "Bing",
        "wikidata": "Q111033721",
        "wikimedia_commons": "Category:Evangelische Kirche (Mückenloch)"
      }
    },
    {
      "type": "Feature",
      "geometry": {
        "type": "Point",
        "coordinates": [
          8.771823791666668,
          49.37324180833334
        ]
      },
      "properties": {
        "osm_id": 124962969,
        "beschränkung": "Kostenfrei",
        "addr:city": "Neckargemünd",
        "addr:country": "DE",
        "addr:housenumber": "16",
        "addr:postcode": "69151",
        "addr:street": "Am Forlenwald",
        "amenity": "place_of_worship",
        "building": "church",
        "denomination": "catholic",
        "name": "Sankt Josef",
        "religion": "christian",
        "source:geometry": "HiRes aerial imagery",
        "wheelchair": "limited"
      }
    },
    {
      "type": "Feature",
      "geometry": {
        "type": "Point",
        "coordinates": [
          8.83959668181818,
          49.38006176363637
        ]
      },
      "properties": {
        "osm_id": 126306451,
        "beschränkung": "Kostenfrei",
        "amenity": "place_of_worship",
        "building": "yes",
        "religion": "christian",
        "source:geometry": "HiRes aerial imagery"
      }
    },
    {
      "type": "Feature",
      "geometry": {
        "type": "Point",
        "coordinates": [
          8.86129664,
          49.39133614
        ]
      },
      "properties": {
        "osm_id": 188513549,
        "beschränkung": "Kostenfrei",
        "addr:city": "Neckargemünd",
        "addr:country": "DE",
        "addr:housenumber": "28",
        "addr:postcode": "69151",
        "addr:street": "Friedhofstraße",
        "addr:suburb": "Mückenloch",
        "amenity": "place_of_worship",
        "building": "yes",
        "denomination": "new_apostolic",
        "name": "Neuapostolische Kirche",
        "religion": "christian"
      }
    },
    {
      "type": "Feature",
      "geometry": {
        "type": "Point",
        "coordinates": [
          8.85871414375,
          49.38921853125
        ]
      },
      "properties": {
        "osm_id": 188515130,
        "beschränkung": "Kostenfrei",
        "addr:city": "Neckargemünd",
        "addr:country": "DE",
        "addr:housenumber": "2",
        "addr:postcode": "69151",
        "addr:street": "Talstraße",
        "addr:suburb": "Mückenloch",
        "amenity": "place_of_worship",
        "building": "yes",
        "denomination": "catholic",
        "name": "Katholische Kirche",
        "religion": "christian"
      }
    }
  ]
}