{
  "type": "FeatureCollection",
  "features": [
    {
      "type": "Feature",
      "geometry": {
        "type": "Point",
        "coordinates": [
          8.801723552542374,
          49.39290511355932
        ]
      },
      "properties": {
        "0401_08": 214.44012451171875,
        "0401_09": 304.5629577636719,
        "0401_10": 372.8887939453125,
        "0401_11": 406.5179138183594,
        "0401_12": 429.09906005859375,
        "0401_13": 390.085205078125,
        "0401_14": 338.1806640625,
        "0401_15": 260.33905029296875,
        "0401_16": 165.97442626953125,
        "0401_17": 84.92029571533203,
        "0401_18": 22.784868240356445,
        "0401_19": 0.0,
        "0401_20": 0.0,
        "0415_08": 264.36285400390625,
        "0415_09": 352.3210754394531,
        "0415_10": 426.6302185058594,
        "0415_11": 469.0297546386719,
        "0415_12": 479.885498046875,
        "0415_13": 452.6991271972656,
        "0415_14": 393.6529541015625,
        "0415_15": 309.4383239746094,
        "0415_16": 211.43699645996094,
        "0415_17": 119.83158874511719,
        "0415_18": 50.248741149902344,
        "0415_19": 0.0,
        "0415_20": 0.0,
        "0501_08": 304.7021484375,
        "0501_09": 392.6412353515625,
        "0501_10": 476.87054443359375,
        "0501_11": 514.9933471679688,
        "0501_12": 532.7105102539062,
        "0501_13": 506.8359069824219,
        "0501_14": 449.3683776855469,
        "0501_15": 346.6784362792969,
        "0501_16": 251.3035125732422,
        "0501_17": 152.10968017578125,
        "0501_18": 75.75222778320312,
        "0501_19": 16.65854263305664,
        "0501_20": 0.0,
        "0515_08": 335.3824768066406,
        "0515_09": 423.3301086425781,
        "0515_10": 501.9149475097656,
        "0515_11": 551.3548583984375,
        "0515_12": 571.235107421875,
        "0515_13": 546.03271484375,
        "0515_14": 475.1233825683594,
        "0515_15": 380.0014953613281,
        "0515_16": 278.4159240722656,
        "0515_17": 171.47096252441406,
        "0515_18": 95.81742095947266,
        "0515_19": 27.929786682128906,
        "0515_20": 0.0,
        "0601_08": 358.6057434082031,
        "0601_09": 449.96502685546875,
        "0601_10": 528.140869140625,
        "0601_11": 580.3095092773438,
        "0601_12": 600.0573120117188,
        "0601_13": 574.0944213867188,
        "0601_14": 503.2742004394531,
        "0601_15": 408.7590637207031,
        "0601_16": 300.0536804199219,
        "0601_17": 187.75621032714844,
        "0601_18": 110.83016967773438,
        "0601_19": 51.82508850097656,
        "0601_20": 0.0,
        "0615_08": 366.6089782714844,
        "0615_09": 459.3993835449219,
        "0615_10": 540.5768432617188,
        "0615_11": 585.583740234375,
        "0615_12": 613.6975708007812,
        "0615_13": 581.1582641601562,
        "0615_14": 517.4345092773438,
        "0615_15": 417.5941162109375,
        "0615_16": 309.1484069824219,
        "0615_17": 206.480712890625,
        "0615_18": 117.7629165649414,
        "0615_19": 57.879005432128906,
        "0615_20": 8.668889999389648,
        "0701_08": 363.4561462402344,
        "0701_09": 457.59814453125,
        "0701_10": 533.7569580078125,
        "0701_11": 583.6576538085938,
        "0701_12": 611.68408203125,
        "0701_13": 579.21533203125,
        "0701_14": 511.5290222167969,
        "0701_15": 415.7599792480469,
        "0701_16": 306.26702880859375,
        "0701_17": 205.37823486328125,
        "0701_18": 116.24451446533203,
        "0701_19": 57.00261306762695,
        "0701_20": 0.0,
        "0715_08": 351.6120910644531,
        "0715_09": 440.0937194824219,
        "0715_10": 520.8316650390625,
        "0715_11": 571.2161865234375,
        "0715_12": 593.0059204101562,
        "0715_13": 564.8390502929688,
        "0715_14": 497.6228942871094,
        "0715_15": 399.5447082519531,
        "0715_16": 293.97186279296875,
        "0715_17": 185.22329711914062,
        "0715_18": 107.7890625,
        "0715_19": 49.270870208740234,
        "0715_20": 0.0,
        "0801_08": 325.13763427734375,
        "0801_09": 410.70611572265625,
        "0801_10": 493.8158874511719,
        "0801_11": 540.8975830078125,
        "0801_12": 558.34814453125,
        "0801_13": 533.6940307617188,
        "0801_14": 470.72760009765625,
        "0801_15": 364.5958251953125,
        "0801_16": 269.90203857421875,
        "0801_17": 167.04708862304688,
        "0801_18": 89.17535400390625,
        "0801_19": 25.3403377532959,
        "0801_20": 0.0,
        "0815_08": 293.53729248046875,
        "0815_09": 380.9717712402344,
        "0815_10": 468.8517150878906,
        "0815_11": 501.4464111328125,
        "0815_12": 519.0479736328125,
        "0815_13": 491.41961669921875,
        "0815_14": 442.4327087402344,
        "0815_15": 334.8357849121094,
        "0815_16": 242.76199340820312,
        "0815_17": 143.65078735351562,
        "0815_18": 69.92948150634766,
        "0815_19": 13.457551956176758,
        "0815_20": 0.0,
        "0901_08": 243.0725555419922,
        "0901_09": 331.921630859375,
        "0901_10": 409.2745056152344,
        "0901_11": 445.5010681152344,
        "0901_12": 457.8900451660156,
        "0901_13": 427.6944580078125,
        "0901_14": 374.93792724609375,
        "0901_15": 289.65325927734375,
        "0901_16": 195.9049530029297,
        "0901_17": 107.44841766357422,
        "0901_18": 33.480892181396484,
        "0901_19": 0.0,
        "0901_20": 0.0,
        "0915_08": 200.73768615722656,
        "0915_09": 289.0252380371094,
        "0915_10": 355.3828430175781,
        "0915_11": 391.3548889160156,
        "0915_12": 398.40374755859375,
        "0915_13": 371.93798828125,
        "0915_14": 321.0426025390625,
        "0915_15": 242.89111328125,
        "0915_16": 153.70924377441406,
        "0915_17": 76.5500717163086,
        "0915_18": 18.182666778564453,
        "0915_19": 0.0,
        "0915_20": 0.0,
        "osm_id": 24688866,
        "beschränkung": "Kostenfrei",
        "fee": "no",
        "leisure": "park",
        "name": "Menzerpark",
        "source:geometry": "HiRes aerial imagery"
      }
    },
    {
      "type": "Feature",
      "geometry": {
        "type": "Point",
        "coordinates": [
          8.7767637,
          49.39280498461539
        ]
      },
      "properties": {
        "0401_08": 208.5321502685547,
        "0401_09": 314.1664123535156,
        "0401_10": 397.1029357910156,
        "0401_11": 434.1258239746094,
        "0401_12": 470.7560729980469,
        "0401_13": 432.14398193359375,
        "0401_14": 390.66387939453125,
        "0401_15": 260.22674560546875,
        "0401_16": 88.5631332397461,
        "0401_17": 55.75361633300781,
        "0401_18": 22.10692596435547,
        "0401_19": 0.0,
        "0401_20": 0.0,
        "0415_08": 277.5364685058594,
        "0415_09": 368.0950927734375,
        "0415_10": 444.10400390625,
        "0415_11": 505.63470458984375,
        "0415_12": 519.6754760742188,
        "0415_13": 499.35723876953125,
        "0415_14": 444.1409606933594,
        "0415_15": 346.46826171875,
        "0415_16": 182.7432861328125,
        "0415_17": 66.66968536376953,
        "0415_18": 36.41398239135742,
        "0415_19": 0.0,
        "0415_20": 0.0,
        "0501_08": 317.2722473144531,
        "0501_09": 397.4998474121094,
        "0501_10": 499.4043273925781,
        "0501_11": 546.5289916992188,
        "0501_12": 560.278076171875,
        "0501_13": 543.677978515625,
        "0501_14": 496.52227783203125,
        "0501_15": 397.50927734375,
        "0501_16": 271.47796630859375,
        "0501_17": 76.05841827392578,
        "0501_18": 49.30661392211914,
        "0501_19": 16.162565231323242,
        "0501_20": 0.0,
        "0515_08": 342.5591735839844,
        "0515_09": 428.2734680175781,
        "0515_10": 513.6095581054688,
        "0515_11": 574.2582397460938,
        "0515_12": 599.7977905273438,
        "0515_13": 571.1234130859375,
        "0515_14": 517.7254638671875,
        "0515_15": 429.7751770019531,
        "0515_16": 333.3291320800781,
        "0515_17": 121.83431243896484,
        "0515_18": 57.4630241394043,
        "0515_19": 27.09845542907715,
        "0515_20": 0.0,
        "0601_08": 365.3448181152344,
        "0601_09": 466.98516845703125,
        "0601_10": 533.4191284179688,
        "0601_11": 599.5764770507812,
        "0601_12": 616.313232421875,
        "0601_13": 594.1385498046875,
        "0601_14": 537.1693115234375,
        "0601_15": 455.6770935058594,
        "0601_16": 353.1836853027344,
        "0601_17": 226.3223419189453,
        "0601_18": 63.6221809387207,
        "0601_19": 35.60713195800781,
        "0601_20": 0.0,
        "0615_08": 372.7441101074219,
        "0615_09": 472.4803771972656,
        "0615_10": 555.720458984375,
        "0615_11": 602.9474487304688,
        "0615_12": 632.6451416015625,
        "0615_13": 602.19189453125,
        "0615_14": 550.02490234375,
        "0615_15": 464.5246887207031,
        "0615_16": 363.64459228515625,
        "0615_17": 257.0203857421875,
        "0615_18": 65.82110595703125,
        "0615_19": 38.7520866394043,
        "0615_20": 8.410364151000977,
        "0701_08": 371.162841796875,
        "0701_09": 470.6420593261719,
        "0701_10": 541.9495239257812,
        "0701_11": 601.0036010742188,
        "0701_12": 630.6834106445312,
        "0701_13": 600.3585815429688,
        "0701_14": 543.9695434570312,
        "0701_15": 462.9200134277344,
        "0701_16": 361.5209045410156,
        "0701_17": 256.89306640625,
        "0701_18": 65.33169555664062,
        "0701_19": 38.183719635009766,
        "0701_20": 0.0,
        "0715_08": 360.76104736328125,
        "0715_09": 446.17388916015625,
        "0715_10": 531.216064453125,
        "0715_11": 589.003662109375,
        "0715_12": 611.1173095703125,
        "0715_13": 586.7075805664062,
        "0715_14": 533.4161987304688,
        "0715_15": 441.82958984375,
        "0715_16": 346.5549621582031,
        "0715_17": 217.4247589111328,
        "0715_18": 62.30244827270508,
        "0715_19": 34.08600997924805,
        "0715_20": 0.0,
        "0801_08": 333.8080749511719,
        "0801_09": 413.5808410644531,
        "0801_10": 511.5653381347656,
        "0801_11": 565.5750732421875,
        "0801_12": 584.9383544921875,
        "0801_13": 562.7283325195312,
        "0801_14": 513.4957275390625,
        "0801_15": 412.1255798339844,
        "0801_16": 315.36700439453125,
        "0801_17": 96.04907989501953,
        "0801_18": 55.24251937866211,
        "0801_19": 24.5860538482666,
        "0801_20": 0.0,
        "0815_08": 307.4491882324219,
        "0815_09": 385.61566162109375,
        "0815_10": 488.7091369628906,
        "0815_11": 528.1781005859375,
        "0815_12": 549.6114501953125,
        "0815_13": 519.3721313476562,
        "0815_14": 490.60546875,
        "0815_15": 387.17938232421875,
        "0815_16": 248.33197021484375,
        "0815_17": 73.5589828491211,
        "0815_18": 46.49848175048828,
        "0815_19": 13.056818008422852,
        "0815_20": 0.0,
        "0901_08": 246.62124633789062,
        "0901_09": 342.4205322265625,
        "0901_10": 429.18023681640625,
        "0901_11": 472.5914001464844,
        "0901_12": 491.86138916015625,
        "0901_13": 463.03765869140625,
        "0901_14": 426.7121276855469,
        "0901_15": 315.4169006347656,
        "0901_16": 151.41221618652344,
        "0901_17": 62.982688903808594,
        "0901_18": 32.232120513916016,
        "0901_19": 0.0,
        "0901_20": 0.0,
        "0915_08": 194.42037963867188,
        "0915_09": 296.95379638671875,
        "0915_10": 376.64306640625,
        "0915_11": 419.7104187011719,
        "0915_12": 436.9996337890625,
        "0915_13": 414.1645202636719,
        "0915_14": 366.9940185546875,
        "0915_15": 230.9302520751953,
        "0915_16": 80.03095245361328,
        "0915_17": 51.69671630859375,
        "0915_18": 17.641664505004883,
        "0915_19": 0.0,
        "0915_20": 0.0,
        "osm_id": 144480085,
        "beschränkung": "Kostenfrei",
        "leisure": "park"
      }
    },
    {
      "type": "Feature",
      "geometry": {
        "type": "Point",
        "coordinates": [
          8.852281666666666,
          49.38506715
        ]
      },
      "properties": {
        "0401_08": 227.44053649902344,
        "0401_09": 377.6275634765625,
        "0401_10": 495.2269592285156,
        "0401_11": 579.0394287109375,
        "0401_12": 614.587158203125,
        "0401_13": 591.3970947265625,
        "0401_14": 505.76934814453125,
        "0401_15": 389.7040100097656,
        "0401_16": 230.81982421875,
        "0401_17": 75.59268188476562,
        "0401_18": 25.298612594604492,
        "0401_19": 0.0,
        "0401_20": 0.0,
        "0415_08": 288.5196228027344,
        "0415_09": 438.42010498046875,
        "0415_10": 558.4220581054688,
        "0415_11": 643.9091186523438,
        "0415_12": 682.50244140625,
        "0415_13": 649.8756713867188,
        "0415_14": 569.4965209960938,
        "0415_15": 442.8935852050781,
        "0415_16": 280.61090087890625,
        "0415_17": 107.65655517578125,
        "0415_18": 41.67069625854492,
        "0415_19": 0.0,
        "0415_20": 0.0,
        "0501_08": 346.90240478515625,
        "0501_09": 486.68109130859375,
        "0501_10": 617.4932861328125,
        "0501_11": 700.43505859375,
        "0501_12": 732.7408447265625,
        "0501_13": 701.5853271484375,
        "0501_14": 626.2789306640625,
        "0501_15": 488.9559020996094,
        "0501_16": 332.78228759765625,
        "0501_17": 155.382568359375,
        "0501_18": 59.16834259033203,
        "0501_19": 18.484943389892578,
        "0501_20": 0.0,
        "0515_08": 388.5249938964844,
        "0515_09": 527.1876831054688,
        "0515_10": 650.7948608398438,
        "0515_11": 734.8372802734375,
        "0515_12": 766.93017578125,
        "0515_13": 738.8434448242188,
        "0515_14": 658.5187377929688,
        "0515_15": 521.2652587890625,
        "0515_16": 370.19305419921875,
        "0515_17": 204.6542510986328,
        "0515_18": 75.13386535644531,
        "0515_19": 31.00012969970703,
        "0515_20": 0.0,
        "0601_08": 412.8481750488281,
        "0601_09": 556.2913208007812,
        "0601_10": 679.1909790039062,
        "0601_11": 758.9259033203125,
        "0601_12": 791.0573120117188,
        "0601_13": 763.9239501953125,
        "0601_14": 686.953125,
        "0601_15": 554.7628173828125,
        "0601_16": 403.0677185058594,
        "0601_17": 241.2442169189453,
        "0601_18": 91.26567840576172,
        "0601_19": 40.73771667480469,
        "0601_20": 0.0,
        "0615_08": 422.49749755859375,
        "0615_09": 571.51708984375,
        "0615_10": 690.21484375,
        "0615_11": 766.5145874023438,
        "0615_12": 796.484619140625,
        "0615_13": 770.9046020507812,
        "0615_14": 695.0328979492188,
        "0615_15": 563.5300903320312,
        "0615_16": 417.4429931640625,
        "0615_17": 254.6338653564453,
        "0615_18": 98.27230834960938,
        "0615_19": 44.336936950683594,
        "0615_20": 9.603997230529785,
        "0701_08": 420.26995849609375,
        "0701_09": 567.349365234375,
        "0701_10": 686.6256713867188,
        "0701_11": 763.8563232421875,
        "0701_12": 793.7706909179688,
        "0701_13": 768.2345581054688,
        "0701_14": 692.4739990234375,
        "0701_15": 560.6072387695312,
        "0701_16": 414.9220275878906,
        "0701_17": 251.81211853027344,
        "0701_18": 97.0390396118164,
        "0701_19": 43.68650436401367,
        "0701_20": 0.0,
        "0715_08": 406.19091796875,
        "0715_09": 548.9620361328125,
        "0715_10": 669.8283081054688,
        "0715_11": 751.6994018554688,
        "0715_12": 783.1435546875,
        "0715_13": 755.6884765625,
        "0715_14": 679.0698852539062,
        "0715_15": 547.0513305664062,
        "0715_16": 395.427490234375,
        "0715_17": 233.3526611328125,
        "0715_18": 87.6229019165039,
        "0715_19": 38.99696350097656,
        "0715_20": 0.0,
        "0801_08": 375.8125,
        "0801_09": 510.4066162109375,
        "0801_10": 637.1837768554688,
        "0801_11": 721.5587768554688,
        "0801_12": 750.8770141601562,
        "0801_13": 724.8622436523438,
        "0801_14": 647.5433959960938,
        "0801_15": 509.4795227050781,
        "0801_16": 359.4517822265625,
        "0801_17": 191.1499481201172,
        "0801_18": 69.72383880615234,
        "0801_19": 28.125,
        "0801_20": 0.0,
        "0815_08": 332.2322082519531,
        "0815_09": 468.1007080078125,
        "0815_10": 602.7860107421875,
        "0815_11": 683.017822265625,
        "0815_12": 714.7528076171875,
        "0815_13": 688.8516845703125,
        "0815_14": 610.3327026367188,
        "0815_15": 473.3874206542969,
        "0815_16": 320.51953125,
        "0815_17": 146.28611755371094,
        "0815_18": 55.605255126953125,
        "0815_19": 14.930851936340332,
        "0815_20": 0.0,
        "0901_08": 269.0347900390625,
        "0901_09": 420.1702880859375,
        "0901_10": 533.905517578125,
        "0901_11": 618.6522216796875,
        "0901_12": 656.1571044921875,
        "0901_13": 624.0614624023438,
        "0901_14": 543.5366821289062,
        "0901_15": 422.4029235839844,
        "0901_16": 263.5118408203125,
        "0901_17": 95.6829833984375,
        "0901_18": 36.88521194458008,
        "0901_19": 0.0,
        "0901_20": 0.0,
        "0915_08": 207.5681915283203,
        "0915_09": 356.2689208984375,
        "0915_10": 468.4841003417969,
        "0915_11": 551.9319458007812,
        "0915_12": 590.027099609375,
        "0915_13": 566.227783203125,
        "0915_14": 483.5343322753906,
        "0915_15": 369.29742431640625,
        "0915_16": 214.69003295898438,
        "0915_17": 66.39608001708984,
        "0915_18": 20.188865661621094,
        "0915_19": 0.0,
        "0915_20": 0.0,
        "osm_id": 222133257,
        "beschränkung": "Kostenfrei",
        "landuse": "recreation_ground"
      }
    },
    {
      "type": "Feature",
      "geometry": {
        "type": "Point",
        "coordinates": [
          8.80040452,
          49.377700319999995
        ]
      },
      "properties": {
        "0401_08": 267.2829284667969,
        "0401_09": 399.5294189453125,
        "0401_10": 487.7189636230469,
        "0401_11": 537.8384399414062,
        "0401_12": 542.4776000976562,
        "0401_13": 498.96173095703125,
        "0401_14": 406.3056945800781,
        "0401_15": 248.94989013671875,
        "0401_16": 94.19804382324219,
        "0401_17": 56.78486251831055,
        "0401_18": 22.51003646850586,
        "0401_19": 0.0,
        "0401_20": 0.0,
        "0415_08": 321.3644104003906,
        "0415_09": 447.578857421875,
        "0415_10": 540.379638671875,
        "0415_11": 586.1670532226562,
        "0415_12": 594.1976928710938,
        "0415_13": 548.1358032226562,
        "0415_14": 455.14703369140625,
        "0415_15": 291.5572204589844,
        "0415_16": 130.27139282226562,
        "0415_17": 67.89815521240234,
        "0415_18": 37.07701873779297,
        "0415_19": 0.0,
        "0415_20": 0.0,
        "0501_08": 364.531494140625,
        "0501_09": 490.40142822265625,
        "0501_10": 582.7745971679688,
        "0501_11": 634.3450927734375,
        "0501_12": 639.121337890625,
        "0501_13": 591.0275268554688,
        "0501_14": 491.7387390136719,
        "0501_15": 328.688232421875,
        "0501_16": 176.0780029296875,
        "0501_17": 77.82548522949219,
        "0501_18": 50.20417022705078,
        "0501_19": 16.43808937072754,
        "0501_20": 0.0,
        "0515_08": 398.5519104003906,
        "0515_09": 518.706298828125,
        "0515_10": 604.5429077148438,
        "0515_11": 657.804931640625,
        "0515_12": 663.4044799804688,
        "0515_13": 617.0786743164062,
        "0515_14": 516.178466796875,
        "0515_15": 355.6929931640625,
        "0515_16": 207.2345428466797,
        "0515_17": 93.70790100097656,
        "0515_18": 58.509117126464844,
        "0515_19": 27.574132919311523,
        "0515_20": 0.0,
        "0601_08": 423.7927551269531,
        "0601_09": 538.55224609375,
        "0601_10": 625.4956665039062,
        "0601_11": 674.3878784179688,
        "0601_12": 680.83056640625,
        "0601_13": 632.9735107421875,
        "0601_14": 530.6845092773438,
        "0601_15": 389.4222717285156,
        "0601_16": 230.25894165039062,
        "0601_17": 110.97858428955078,
        "0601_18": 64.78057861328125,
        "0601_19": 36.23876953125,
        "0601_20": 0.0,
        "0615_08": 428.3506774902344,
        "0615_09": 544.6339111328125,
        "0615_10": 632.4854736328125,
        "0615_11": 678.98779296875,
        "0615_12": 689.279541015625,
        "0615_13": 642.2576904296875,
        "0615_14": 538.4510498046875,
        "0615_15": 404.76922607421875,
        "0615_16": 236.6839599609375,
        "0615_17": 114.83680725097656,
        "0615_18": 67.0196304321289,
        "0615_19": 39.441444396972656,
        "0615_20": 8.528050422668457,
        "0701_08": 426.6689147949219,
        "0701_09": 542.71728515625,
        "0701_10": 630.490966796875,
        "0701_11": 676.158203125,
        "0701_12": 687.1132202148438,
        "0701_13": 640.2496337890625,
        "0701_14": 536.6507568359375,
        "0701_15": 403.8841552734375,
        "0701_16": 233.6068572998047,
        "0701_17": 113.1335678100586,
        "0701_18": 66.52130126953125,
        "0701_19": 38.86269760131836,
        "0701_20": 0.0,
        "0715_08": 416.7626037597656,
        "0715_09": 529.4913940429688,
        "0715_10": 620.0198974609375,
        "0715_11": 668.656494140625,
        "0715_12": 673.373779296875,
        "0715_13": 627.47265625,
        "0715_14": 523.9893188476562,
        "0715_15": 380.3442687988281,
        "0715_16": 225.8595733642578,
        "0715_17": 107.60490417480469,
        "0715_18": 63.43678283691406,
        "0715_19": 34.689876556396484,
        "0715_20": 0.0,
        "0801_08": 386.9194641113281,
        "0801_09": 504.99993896484375,
        "0801_10": 602.9296875,
        "0801_11": 646.1653442382812,
        "0801_12": 654.0279541015625,
        "0801_13": 605.5869140625,
        "0801_14": 512.9998779296875,
        "0801_15": 346.9997863769531,
        "0801_16": 200.66232299804688,
        "0801_17": 86.9867935180664,
        "0801_18": 56.2481689453125,
        "0801_19": 25.015918731689453,
        "0801_20": 0.0,
        "0815_08": 351.75537109375,
        "0815_09": 474.64154052734375,
        "0815_10": 572.1069946289062,
        "0815_11": 617.81982421875,
        "0815_12": 621.6343383789062,
        "0815_13": 572.4561767578125,
        "0815_14": 482.44744873046875,
        "0815_15": 315.01873779296875,
        "0815_16": 166.88429260253906,
        "0815_17": 74.91166687011719,
        "0815_18": 47.34492111206055,
        "0815_19": 13.275793075561523,
        "0815_20": 0.0,
        "0901_08": 300.89642333984375,
        "0901_09": 431.2112731933594,
        "0901_10": 520.9119262695312,
        "0901_11": 568.800537109375,
        "0901_12": 573.6522216796875,
        "0901_13": 523.6702880859375,
        "0901_14": 435.9252014160156,
        "0901_15": 274.0502624511719,
        "0901_16": 120.6867446899414,
        "0901_17": 64.14421081542969,
        "0901_18": 32.819129943847656,
        "0901_19": 0.0,
        "0901_20": 0.0,
        "0915_08": 250.2296142578125,
        "0915_09": 377.0323181152344,
        "0915_10": 467.0902099609375,
        "0915_11": 516.0820922851562,
        "0915_12": 519.5794067382812,
        "0915_13": 477.8814697265625,
        "0915_14": 386.1344299316406,
        "0915_15": 231.4337158203125,
        "0915_16": 81.08888244628906,
        "0915_17": 52.654327392578125,
        "0915_18": 17.963680267333984,
        "0915_19": 0.0,
        "0915_20": 0.0,
        "osm_id": 406624822,
        "beschränkung": "Kostenfrei",
        "leisure": "park",
        "name": "Interkultureller Garten"
      }
    },
    {
      "type": "Feature",
      "geometry": {
        "type": "Point",
        "coordinates": [
          8.805740385714286,
          49.386251542857146
        ]
      },
      "properties": {
        "0401_08": 166.7588653564453,
        "0401_09": 222.1148681640625,
        "0401_10": 266.9601135253906,
        "0401_11": 239.74314880371094,
        "0401_12": 291.95947265625,
        "0401_13": 260.2470703125,
        "0401_14": 266.0605163574219,
        "0401_15": 250.7235870361328,
        "0401_16": 181.5861053466797,
        "0401_17": 109.17627716064453,
        "0401_18": 19.124723434448242,
        "0401_19": 0.0,
        "0401_20": 0.0,
        "0415_08": 207.74810791015625,
        "0415_09": 279.89788818359375,
        "0415_10": 285.0187072753906,
        "0415_11": 288.6473388671875,
        "0415_12": 319.8498840332031,
        "0415_13": 305.4770812988281,
        "0415_14": 306.4450988769531,
        "0415_15": 278.68499755859375,
        "0415_16": 215.56947326660156,
        "0415_17": 142.23793029785156,
        "0415_18": 66.84099578857422,
        "0415_19": 0.0,
        "0415_20": 0.0,
        "0501_08": 243.4314727783203,
        "0501_09": 313.18231201171875,
        "0501_10": 328.1044006347656,
        "0501_11": 325.888671875,
        "0501_12": 339.2055358886719,
        "0501_13": 317.56939697265625,
        "0501_14": 343.9782409667969,
        "0501_15": 298.747314453125,
        "0501_16": 247.48605346679688,
        "0501_17": 173.07711791992188,
        "0501_18": 102.55089569091797,
        "0501_19": 13.97520923614502,
        "0501_20": 0.0,
        "0515_08": 272.5517578125,
        "0515_09": 336.8592224121094,
        "0515_10": 347.22418212890625,
        "0515_11": 351.0497131347656,
        "0515_12": 355.5611877441406,
        "0515_13": 336.1723327636719,
        "0515_14": 333.4663391113281,
        "0515_15": 326.4101867675781,
        "0515_16": 270.0446472167969,
        "0515_17": 189.20022583007812,
        "0515_18": 127.21829986572266,
        "0515_19": 23.436128616333008,
        "0515_20": 0.0,
        "0601_08": 298.6944580078125,
        "0601_09": 360.304931640625,
        "0601_10": 364.04217529296875,
        "0601_11": 375.7832946777344,
        "0601_12": 388.9839782714844,
        "0601_13": 360.8439636230469,
        "0601_14": 353.65386962890625,
        "0601_15": 339.631591796875,
        "0601_16": 278.6816101074219,
        "0601_17": 201.3091278076172,
        "0601_18": 142.11627197265625,
        "0601_19": 61.56350326538086,
        "0601_20": 0.0,
        "0615_08": 316.2947998046875,
        "0615_09": 362.80560302734375,
        "0615_10": 380.30938720703125,
        "0615_11": 371.7998352050781,
        "0615_12": 390.50665283203125,
        "0615_13": 365.5694885253906,
        "0615_14": 364.38189697265625,
        "0615_15": 342.5638122558594,
        "0615_16": 283.06915283203125,
        "0615_17": 240.61521911621094,
        "0615_18": 147.5965118408203,
        "0615_19": 70.964599609375,
        "0615_20": 7.262728691101074,
        "0701_08": 314.9757080078125,
        "0701_09": 361.56298828125,
        "0701_10": 379.1486511230469,
        "0701_11": 370.82757568359375,
        "0701_12": 389.48931884765625,
        "0701_13": 364.590087890625,
        "0701_14": 363.1929626464844,
        "0701_15": 341.31304931640625,
        "0701_16": 281.82818603515625,
        "0701_17": 239.29283142089844,
        "0701_18": 146.4164581298828,
        "0701_19": 69.80777740478516,
        "0701_20": 0.0,
        "0715_08": 294.9685363769531,
        "0715_09": 350.0538330078125,
        "0715_10": 363.46966552734375,
        "0715_11": 360.1259460449219,
        "0715_12": 386.3856506347656,
        "0715_13": 342.76483154296875,
        "0715_14": 344.8159484863281,
        "0715_15": 331.7025451660156,
        "0715_16": 275.2853088378906,
        "0715_17": 198.26177978515625,
        "0715_18": 138.87391662597656,
        "0715_19": 55.79228973388672,
        "0715_20": 0.0,
        "0801_08": 263.25885009765625,
        "0801_09": 331.2342834472656,
        "0801_10": 337.6361083984375,
        "0801_11": 346.80279541015625,
        "0801_12": 351.298095703125,
        "0801_13": 331.7560729980469,
        "0801_14": 347.2799377441406,
        "0801_15": 320.934814453125,
        "0801_16": 258.0758972167969,
        "0801_17": 184.05770874023438,
        "0801_18": 116.66462707519531,
        "0801_19": 21.262649536132812,
        "0801_20": 0.0,
        "0815_08": 231.62655639648438,
        "0815_09": 303.383544921875,
        "0815_10": 322.0787353515625,
        "0815_11": 321.9161071777344,
        "0815_12": 333.8478698730469,
        "0815_13": 311.362548828125,
        "0815_14": 337.62640380859375,
        "0815_15": 291.99835205078125,
        "0815_16": 234.80538940429688,
        "0815_17": 162.52235412597656,
        "0815_18": 93.02298736572266,
        "0815_19": 11.28845500946045,
        "0815_20": 0.0,
        "0901_08": 185.63534545898438,
        "0901_09": 245.14488220214844,
        "0901_10": 277.1733703613281,
        "0901_11": 259.6756896972656,
        "0901_12": 300.8084716796875,
        "0901_13": 285.7749328613281,
        "0901_14": 295.90179443359375,
        "0901_15": 267.2139892578125,
        "0901_16": 200.0476837158203,
        "0901_17": 127.96952819824219,
        "0901_18": 41.52150344848633,
        "0901_19": 0.0,
        "0901_20": 0.0,
        "0915_08": 153.83541870117188,
        "0915_09": 197.62445068359375,
        "0915_10": 258.97381591796875,
        "0915_11": 232.84678649902344,
        "0915_12": 259.2467956542969,
        "0915_13": 253.5546112060547,
        "0915_14": 257.6412353515625,
        "0915_15": 232.734619140625,
        "0915_16": 172.92921447753906,
        "0915_17": 100.62041473388672,
        "0915_18": 15.261940002441406,
        "0915_19": 0.0,
        "0915_20": 0.0,
        "osm_id": 1136310863,
        "beschränkung": "Kostenfrei",
        "access": "yes",
        "leisure": "park"
      }
    }
  ]
}