{
  "type": "FeatureCollection",
  "features": [
    {
      "type": "Feature",
      "geometry": {
        "type": "Polygon",
        "coordinates": [
          [
            [
              8.8015322,
              49.3922343
            ],
            [
              8.8014675,
              49.3922857
            ],
            [
              8.8013979,
              49.3923369
            ],
            [
              8.801102,
              49.392555
            ],
            [
              8.8009366,
              49.3927075
            ],
            [
              8.8009164,
              49.392747
            ],
            [
              8.8009177,
              49.3927912
            ],
            [
              8.800916,
              49.3928604
            ],
            [
              8.8009222,
              49.3929348
            ],
            [
              8.8009066,
              49.3929676
            ],
            [
              8.8008688,
              49.3930337
            ],
            [
              8.8008107,
              49.393135
            ],
            [
              8.8007904,
              49.3931756
            ],
            [
              8.8007161,
              49.3932809
            ],
            [
              8.8007278,
              49.3933579
            ],
            [
              8.8007707,
              49.3934725
            ],
            [
              8.8008068,
              49.3935637
            ],
            [
              8.8008416,
              49.3936685
            ],
            [
              8.8008609,
              49.3936842
            ],
            [
              8.8008918,
              49.3936931
            ],
            [
              8.8009925,
              49.3936696
            ],
            [
              8.8011374,
              49.3936391
            ],
            [
              8.8012951,
              49.3936084
            ],
            [
              8.8016581,
              49.3935462
            ],
            [
              8.8022117,
              49.3934387
            ],
            [
              8.8023738,
              49.3933957
            ],
            [
              8.8024957,
              49.3933638
            ],
            [
              8.8025107,
              49.3933688
            ],
            [
              8.8025244,
              49.3933502
            ],
            [
              8.8025115,
              49.3933454
            ],
            [
              8.8024929,
              49.3933202
            ],
            [
              8.8023827,
              49.3932533
            ],
            [
              8.8023344,
              49.3931438
            ],
            [
              8.8023172,
              49.393066
            ],
            [
              8.8023111,
              49.3929642
            ],
            [
              8.8023201,
              49.3928957
            ],
            [
              8.8023242,
              49.3928457
            ],
            [
              8.8023271,
              49.3927958
            ],
            [
              8.8023276,
              49.3927579
            ],
            [
              8.8023251,
              49.3927352
            ],
            [
              8.8023231,
              49.3927179
            ],
            [
              8.8023182,
              49.3927066
            ],
            [
              8.802291,
              49.3926079
            ],
            [
              8.8022891,
              49.3925968
            ],
            [
              8.8022788,
              49.39257
            ],
            [
              8.8022664,
              49.3925458
            ],
            [
              8.8022459,
              49.3925135
            ],
            [
              8.802229,
              49.392491
            ],
            [
              8.8022051,
              49.3924636
            ],
            [
              8.8021669,
              49.3924282
            ],
            [
              8.8021399,
              49.3924072
            ],
            [
              8.8021024,
              49.3923801
            ],
            [
              8.8020421,
              49.3923464
            ],
            [
              8.8019765,
              49.3923207
            ],
            [
              8.8019138,
              49.3923017
            ],
            [
              8.8018556,
              49.3922871
            ],
            [
              8.8017032,
              49.392259
            ],
            [
              8.8015364,
              49.3922347
            ],
            [
              8.8015322,
              49.3922343
            ]
          ]
        ]
      },
      "properties": {
        "osm_id": 24688866,
        "beschränkung": "Kostenfrei",
        "fee": "no",
        "leisure": "park",
        "name": "Menzerpark",
        "source:geometry": "HiRes aerial imagery"
      }
    },
    {
      "type": "Feature",
      "geometry": {
        "type": "Polygon",
        "coordinates": [
          [
            [
              8.8108153,
              49.3945071
            ],
            [
              8.8106248,
              49.3941537
            ],
            [
              8.8106997,
              49.3940816
            ],
            [
              8.8107495,
              49.3940612
            ],
            [
              8.8108219,
              49.3939156
            ],
            [
              8.8108405,
              49.3938177
            ],
            [
              8.8108482,
              49.3937991
            ],
            [
              8.8108513,
              49.3937773
            ],
            [
              8.8108499,
              49.3937537
            ],
            [
              8.81093,
              49.3931931
            ],
            [
              8.8114927,
              49.3931745
            ],
            [
              8.8114946,
              49.3929632
            ],
            [
              8.8111814,
              49.3929618
            ],
            [
              8.8110569,
              49.3928841
            ],
            [
              8.8110508,
              49.3928453
            ],
            [
              8.8111438,
              49.3928048
            ],
            [
              8.811224,
              49.3927838
            ],
            [
              8.8113632,
              49.3927767
            ],
            [
              8.811671,
              49.3927809
            ],
            [
              8.8116687,
              49.3927599
            ],
            [
              8.8116746,
              49.3926755
            ],
            [
              8.8102528,
              49.3926833
            ],
            [
              8.8100791,
              49.3926899
            ],
            [
              8.8099385,
              49.3927048
            ],
            [
              8.8091541,
              49.392898
            ],
            [
              8.8089872,
              49.3933931
            ],
            [
              8.8091296,
              49.3936401
            ],
            [
              8.809024,
              49.3936879
            ],
            [
              8.8090481,
              49.3937212
            ],
            [
              8.8087789,
              49.393826
            ],
            [
              8.8087646,
              49.3938782
            ],
            [
              8.8089621,
              49.394078
            ],
            [
              8.8094688,
              49.3945907
            ],
            [
              8.809503,
              49.3945858
            ],
            [
              8.8098439,
              49.3945484
            ],
            [
              8.8098717,
              49.394612
            ],
            [
              8.8098942,
              49.3946076
            ],
            [
              8.8099044,
              49.3946276
            ],
            [
              8.8101667,
              49.3945469
            ],
            [
              8.8102705,
              49.394564
            ],
            [
              8.8104037,
              49.394561
            ],
            [
              8.810547,
              49.3945346
            ],
            [
              8.8105625,
              49.3945572
            ],
            [
              8.8108153,
              49.3945071
            ]
          ]
        ]
      },
      "properties": {
        "osm_id": 37612601,
        "beschränkung": "Kostenfrei",
        "addr:city": "Neckargemünd",
        "addr:housenumber": "26",
        "addr:postcode": "69151",
        "addr:street": "Schwimmbadstraße",
        "landuse": "recreation_ground",
        "leisure": "water_park",
        "name": "Terrassen-Freischwimmbad",
        "sport": "swimming"
      }
    },
    {
      "type": "Feature",
      "geometry": {
        "type": "Polygon",
        "coordinates": [
          [
            [
              8.7761755,
              49.3930376
            ],
            [
              8.7760762,
              49.3929708
            ],
            [
              8.776553,
              49.3927024
            ],
            [
              8.776959,
              49.3925319
            ],
            [
              8.7772982,
              49.3924355
            ],
            [
              8.7773071,
              49.3926078
            ],
            [
              8.7773275,
              49.3927699
            ],
            [
              8.777139,
              49.3928132
            ],
            [
              8.7770037,
              49.3928323
            ],
            [
              8.7768848,
              49.3928409
            ],
            [
              8.7767331,
              49.3928771
            ],
            [
              8.7762955,
              49.3930078
            ],
            [
              8.7761755,
              49.3930376
            ]
          ]
        ]
      },
      "properties": {
        "osm_id": 144480085,
        "beschränkung": "Kostenfrei",
        "leisure": "park"
      }
    },
    {
      "type": "Feature",
      "geometry": {
        "type": "Polygon",
        "coordinates": [
          [
            [
              8.8517678,
              49.3851488
            ],
            [
              8.8516839,
              49.3850378
            ],
            [
              8.8523516,
              49.3848697
            ],
            [
              8.8523402,
              49.3848523
            ],
            [
              8.8527113,
              49.3847501
            ],
            [
              8.8529481,
              49.3850644
            ],
            [
              8.8527355,
              49.3851456
            ],
            [
              8.8524314,
              49.3852537
            ],
            [
              8.8524015,
              49.3852006
            ],
            [
              8.8521769,
              49.3852555
            ],
            [
              8.852064,
              49.3850785
            ],
            [
              8.8517678,
              49.3851488
            ]
          ]
        ]
      },
      "properties": {
        "osm_id": 222133257,
        "beschränkung": "Kostenfrei",
        "landuse": "recreation_ground"
      }
    },
    {
      "type": "Feature",
      "geometry": {
        "type": "Polygon",
        "coordinates": [
          [
            [
              8.8007617,
              49.3775967
            ],
            [
              8.8008559,
              49.3778734
            ],
            [
              8.799871,
              49.377889
            ],
            [
              8.7997723,
              49.3775458
            ],
            [
              8.8007617,
              49.3775967
            ]
          ]
        ]
      },
      "properties": {
        "osm_id": 406624822,
        "beschränkung": "Kostenfrei",
        "leisure": "park",
        "name": "Interkultureller Garten"
      }
    },
    {
      "type": "Feature",
      "geometry": {
        "type": "Polygon",
        "coordinates": [
          [
            [
              8.8057063,
              49.386401
            ],
            [
              8.8058711,
              49.3863952
            ],
            [
              8.805847,
              49.3861113
            ],
            [
              8.8056815,
              49.3861172
            ],
            [
              8.8056844,
              49.3861564
            ],
            [
              8.8056861,
              49.3861787
            ],
            [
              8.8057063,
              49.386401
            ]
          ]
        ]
      },
      "properties": {
        "osm_id": 1136310863,
        "beschränkung": "Kostenfrei",
        "access": "yes",
        "leisure": "park"
      }
    }
  ]
}