{
  "type": "FeatureCollection",
  "features": [
    {
      "type": "Feature",
      "geometry": {
        "type": "Polygon",
        "coordinates": [
          [
            [
              8.8053363,
              49.3861922
            ],
            [
              8.8053565,
              49.3864145
            ],
            [
              8.8056796,
              49.386402
            ],
            [
              8.8057063,
              49.386401
            ],
            [
              8.8056861,
              49.3861787
            ],
            [
              8.8053363,
              49.3861922
            ]
          ]
        ]
      },
      "properties": {
        "osm_id": 24692737,
        "beschränkung": "Kostenfrei",
        "access": "yes",
        "leisure": "playground"
      }
    },
    {
      "type": "Feature",
      "geometry": {
        "type": "Polygon",
        "coordinates": [
          [
            [
              8.8042905,
              49.3819747
            ],
            [
              8.8044334,
              49.3822828
            ],
            [
              8.8048514,
              49.3821361
            ],
            [
              8.80517,
              49.3820331
            ],
            [
              8.8048694,
              49.3818469
            ],
            [
              8.8042905,
              49.3819747
            ]
          ]
        ]
      },
      "properties": {
        "osm_id": 24717427,
        "beschränkung": "Kostenfrei",
        "access": "yes",
        "leisure": "playground",
        "wheelchair": "no"
      }
    },
    {
      "type": "Feature",
      "geometry": {
        "type": "Polygon",
        "coordinates": [
          [
            [
              8.7871031,
              49.3951357
            ],
            [
              8.787131,
              49.3950896
            ],
            [
              8.7871872,
              49.3950031
            ],
            [
              8.7865408,
              49.3948341
            ],
            [
              8.786484,
              49.3949211
            ],
            [
              8.7864539,
              49.3949715
            ],
            [
              8.7871031,
              49.3951357
            ]
          ]
        ]
      },
      "properties": {
        "osm_id": 25048479,
        "beschränkung": "Kostenfrei",
        "leisure": "playground",
        "name": "Ziegelhütte-Leinpfad",
        "opening_hours": "08:00-13:00,15:00-20:00"
      }
    },
    {
      "type": "Feature",
      "geometry": {
        "type": "Polygon",
        "coordinates": [
          [
            [
              8.8000985,
              49.3863481
            ],
            [
              8.7998588,
              49.3861248
            ],
            [
              8.7998547,
              49.3860773
            ],
            [
              8.7998648,
              49.386027
            ],
            [
              8.7999598,
              49.3859602
            ],
            [
              8.8001391,
              49.3863384
            ],
            [
              8.8000985,
              49.3863481
            ]
          ]
        ]
      },
      "properties": {
        "osm_id": 25057688,
        "beschränkung": "Kostenfrei",
        "access": "yes",
        "leisure": "playground",
        "name": "Reichensteinstraße 40"
      }
    },
    {
      "type": "Feature",
      "geometry": {
        "type": "Polygon",
        "coordinates": [
          [
            [
              8.8012932,
              49.3935976
            ],
            [
              8.8012882,
              49.3935703
            ],
            [
              8.8013962,
              49.3933924
            ],
            [
              8.8016387,
              49.3933103
            ],
            [
              8.801687,
              49.3932748
            ],
            [
              8.8017457,
              49.3932655
            ],
            [
              8.8021793,
              49.393359
            ],
            [
              8.8022085,
              49.3934318
            ],
            [
              8.8017389,
              49.3935253
            ],
            [
              8.8012932,
              49.3935976
            ]
          ]
        ]
      },
      "properties": {
        "osm_id": 25099700,
        "beschränkung": "Kostenfrei",
        "access": "yes",
        "leisure": "playground",
        "name": "Menzerpark Dilsberger Straße",
        "opening_hours": "08:00-13:00,15:00-20:00",
        "wheelchair": "yes"
      }
    },
    {
      "type": "Feature",
      "geometry": {
        "type": "Polygon",
        "coordinates": [
          [
            [
              8.8421765,
              49.3921493
            ],
            [
              8.8419994,
              49.3921277
            ],
            [
              8.842166,
              49.3918699
            ],
            [
              8.8423058,
              49.3918737
            ],
            [
              8.8422747,
              49.3921025
            ],
            [
              8.8422223,
              49.3921294
            ],
            [
              8.8421765,
              49.3921493
            ]
          ]
        ]
      },
      "properties": {
        "osm_id": 28286151,
        "beschränkung": "Kostenfrei",
        "leisure": "playground"
      }
    },
    {
      "type": "Feature",
      "geometry": {
        "type": "Polygon",
        "coordinates": [
          [
            [
              8.8089896,
              49.3939409
            ],
            [
              8.809045,
              49.3939095
            ],
            [
              8.8090859,
              49.3938803
            ],
            [
              8.8091166,
              49.3938495
            ],
            [
              8.8091566,
              49.3938199
            ],
            [
              8.8092226,
              49.3937848
            ],
            [
              8.8092245,
              49.3937631
            ],
            [
              8.8092116,
              49.3937437
            ],
            [
              8.809175,
              49.3937305
            ],
            [
              8.8091481,
              49.3937273
            ],
            [
              8.8091083,
              49.3937273
            ],
            [
              8.8090426,
              49.3937378
            ],
            [
              8.808971,
              49.3937679
            ],
            [
              8.8088905,
              49.3938032
            ],
            [
              8.8088217,
              49.3938202
            ],
            [
              8.8087978,
              49.3938293
            ],
            [
              8.808772,
              49.393849
            ],
            [
              8.8087708,
              49.3938805
            ],
            [
              8.8087945,
              49.3939097
            ],
            [
              8.80883,
              49.3939354
            ],
            [
              8.8088706,
              49.3939516
            ],
            [
              8.8089077,
              49.3939534
            ],
            [
              8.8089474,
              49.3939495
            ],
            [
              8.8089896,
              49.3939409
            ]
          ]
        ]
      },
      "properties": {
        "osm_id": 35898984,
        "beschränkung": "Zahlungspflichtig",
        "access": "customers",
        "leisure": "playground",
        "wheelchair": "yes"
      }
    },
    {
      "type": "Feature",
      "geometry": {
        "type": "Polygon",
        "coordinates": [
          [
            [
              8.765845,
              49.3767296
            ],
            [
              8.7659712,
              49.3766065
            ],
            [
              8.7659931,
              49.3765852
            ],
            [
              8.7660102,
              49.3765685
            ],
            [
              8.7657785,
              49.3764647
            ],
            [
              8.7656934,
              49.3765396
            ],
            [
              8.7656587,
              49.3765701
            ],
            [
              8.7655055,
              49.3767049
            ],
            [
              8.7657668,
              49.3767514
            ],
            [
              8.765845,
              49.3767296
            ]
          ]
        ]
      },
      "properties": {
        "osm_id": 47083957,
        "beschränkung": "Kostenfrei",
        "leisure": "playground",
        "name": "Unterer Eulenscheich 21",
        "note": "\"Unterer\" mit einem \"r\" am Ende steht wirklich so auf dem Schild.",
        "source:geometry": "HiRes aerial imagery"
      }
    },
    {
      "type": "Feature",
      "geometry": {
        "type": "Polygon",
        "coordinates": [
          [
            [
              8.7980203,
              49.3917022
            ],
            [
              8.7979636,
              49.3914117
            ],
            [
              8.7982004,
              49.3913861
            ],
            [
              8.7982115,
              49.391441
            ],
            [
              8.798217,
              49.3915831
            ],
            [
              8.7982087,
              49.3916813
            ],
            [
              8.7980203,
              49.3917022
            ]
          ]
        ]
      },
      "properties": {
        "osm_id": 59110627,
        "beschränkung": "Kostenfrei",
        "access": "yes",
        "leisure": "playground",
        "name": "Mühlgasse 18"
      }
    },
    {
      "type": "Feature",
      "geometry": {
        "type": "Polygon",
        "coordinates": [
          [
            [
              8.7725783,
              49.3754075
            ],
            [
              8.7726716,
              49.3753746
            ],
            [
              8.7727275,
              49.3753549
            ],
            [
              8.7727588,
              49.3753721
            ],
            [
              8.7729275,
              49.3755831
            ],
            [
              8.7729639,
              49.3756649
            ],
            [
              8.7729698,
              49.3756942
            ],
            [
              8.7728746,
              49.3757284
            ],
            [
              8.772819,
              49.3757126
            ],
            [
              8.7728136,
              49.3757057
            ],
            [
              8.7725783,
              49.3754075
            ]
          ]
        ]
      },
      "properties": {
        "osm_id": 87320865,
        "beschränkung": "Kostenfrei",
        "leisure": "playground",
        "name": "Schulstraße 26",
        "source:geometry": "HiRes aerial imagery"
      }
    },
    {
      "type": "Feature",
      "geometry": {
        "type": "Polygon",
        "coordinates": [
          [
            [
              8.80403,
              49.391733
            ],
            [
              8.8040564,
              49.3916012
            ],
            [
              8.8040867,
              49.3915581
            ],
            [
              8.8042952,
              49.3915756
            ],
            [
              8.8043759,
              49.391602
            ],
            [
              8.8042649,
              49.3917522
            ],
            [
              8.80403,
              49.391733
            ]
          ]
        ]
      },
      "properties": {
        "osm_id": 123592659,
        "beschränkung": "Kostenfrei",
        "leisure": "playground",
        "wheelchair": "no"
      }
    },
    {
      "type": "Feature",
      "geometry": {
        "type": "Polygon",
        "coordinates": [
          [
            [
              8.7941585,
              49.3927038
            ],
            [
              8.7941572,
              49.3926408
            ],
            [
              8.7939933,
              49.3926023
            ],
            [
              8.7939406,
              49.3925897
            ],
            [
              8.7938178,
              49.3925661
            ],
            [
              8.7937935,
              49.392604
            ],
            [
              8.7937865,
              49.392708
            ],
            [
              8.7941585,
              49.3927038
            ]
          ]
        ]
      },
      "properties": {
        "osm_id": 124143845,
        "beschränkung": "Kostenfrei",
        "leisure": "playground"
      }
    },
    {
      "type": "Feature",
      "geometry": {
        "type": "Polygon",
        "coordinates": [
          [
            [
              8.7842079,
              49.391573
            ],
            [
              8.7842839,
              49.3915891
            ],
            [
              8.7843409,
              49.3915259
            ],
            [
              8.7845952,
              49.3915867
            ],
            [
              8.7844787,
              49.391811
            ],
            [
              8.784436,
              49.3918229
            ],
            [
              8.7844103,
              49.3918766
            ],
            [
              8.784071,
              49.3917949
            ],
            [
              8.7842079,
              49.391573
            ]
          ]
        ]
      },
      "properties": {
        "osm_id": 124283504,
        "beschränkung": "Kostenfrei",
        "leisure": "playground"
      }
    },
    {
      "type": "Feature",
      "geometry": {
        "type": "Polygon",
        "coordinates": [
          [
            [
              8.83871,
              49.3973078
            ],
            [
              8.8387441,
              49.3972932
            ],
            [
              8.839032,
              49.3971961
            ],
            [
              8.8391462,
              49.3972715
            ],
            [
              8.8391164,
              49.3973392
            ],
            [
              8.8390885,
              49.3974029
            ],
            [
              8.839014,
              49.3974625
            ],
            [
              8.8388892,
              49.3974053
            ],
            [
              8.83871,
              49.3973078
            ]
          ]
        ]
      },
      "properties": {
        "osm_id": 126245221,
        "beschränkung": "Kostenfrei",
        "access": "yes",
        "leisure": "playground"
      }
    },
    {
      "type": "Feature",
      "geometry": {
        "type": "Polygon",
        "coordinates": [
          [
            [
              8.8042522,
              49.3999613
            ],
            [
              8.8040633,
              49.3999651
            ],
            [
              8.80407,
              49.3999282
            ],
            [
              8.8041012,
              49.3999079
            ],
            [
              8.8042184,
              49.3998719
            ],
            [
              8.8043959,
              49.3998334
            ],
            [
              8.8045524,
              49.3998027
            ],
            [
              8.804597,
              49.3997904
            ],
            [
              8.8046486,
              49.3997926
            ],
            [
              8.8046819,
              49.3998603
            ],
            [
              8.8044599,
              49.3999209
            ],
            [
              8.8042522,
              49.3999613
            ]
          ]
        ]
      },
      "properties": {
        "osm_id": 179156832,
        "beschränkung": "Kostenfrei",
        "leisure": "playground",
        "ref": "Kraichgaustraße 1/1"
      }
    },
    {
      "type": "Feature",
      "geometry": {
        "type": "Polygon",
        "coordinates": [
          [
            [
              8.8398227,
              49.3807057
            ],
            [
              8.8401686,
              49.3807164
            ],
            [
              8.8401594,
              49.3804669
            ],
            [
              8.8397827,
              49.3804945
            ],
            [
              8.8398227,
              49.3807057
            ]
          ]
        ]
      },
      "properties": {
        "osm_id": 219968524,
        "beschränkung": "Kostenfrei",
        "leisure": "playground",
        "name": "Dilsbergerhof am Friedhof",
        "source:geometry": "HiRes aerial imagery"
      }
    },
    {
      "type": "Feature",
      "geometry": {
        "type": "Polygon",
        "coordinates": [
          [
            [
              8.8051449,
              49.3980028
            ],
            [
              8.8054925,
              49.397752
            ],
            [
              8.8052087,
              49.3975376
            ],
            [
              8.8048794,
              49.3977447
            ],
            [
              8.8048465,
              49.3978434
            ],
            [
              8.8051449,
              49.3980028
            ]
          ]
        ]
      },
      "properties": {
        "osm_id": 391813740,
        "beschränkung": "Kostenfrei",
        "leisure": "playground",
        "name": "Hanna-Weis-Platz",
        "operator": "Stadt Neckargemünd"
      }
    },
    {
      "type": "Feature",
      "geometry": {
        "type": "Polygon",
        "coordinates": [
          [
            [
              8.8552761,
              49.3879103
            ],
            [
              8.8560017,
              49.387768
            ],
            [
              8.855933,
              49.3876694
            ],
            [
              8.8557316,
              49.3875152
            ],
            [
              8.8555682,
              49.3875815
            ],
            [
              8.8554355,
              49.387489
            ],
            [
              8.8551209,
              49.3875757
            ],
            [
              8.8551776,
              49.3876799
            ],
            [
              8.8552446,
              49.3878292
            ],
            [
              8.8552761,
              49.3879103
            ]
          ]
        ]
      },
      "properties": {
        "osm_id": 865607273,
        "beschränkung": "Kostenfrei",
        "leisure": "playground"
      }
    },
    {
      "type": "Feature",
      "geometry": {
        "type": "Polygon",
        "coordinates": [
          [
            [
              8.793899,
              49.3932343
            ],
            [
              8.7940464,
              49.3932335
            ],
            [
              8.7940817,
              49.3932205
            ],
            [
              8.7941077,
              49.3932021
            ],
            [
              8.7941183,
              49.3931829
            ],
            [
              8.7941148,
              49.3931437
            ],
            [
              8.7940978,
              49.3929981
            ],
            [
              8.7940888,
              49.3929873
            ],
            [
              8.794079,
              49.3929809
            ],
            [
              8.794061,
              49.3929751
            ],
            [
              8.7937209,
              49.3929805
            ],
            [
              8.7937073,
              49.3929878
            ],
            [
              8.7936885,
              49.3930015
            ],
            [
              8.7936833,
              49.3930142
            ],
            [
              8.7937067,
              49.3931537
            ],
            [
              8.793899,
              49.3932343
            ]
          ]
        ]
      },
      "properties": {
        "osm_id": 1531391217,
        "beschränkung": "Kostenfrei",
        "access": "yes",
        "description": "Das Spielen auf dem Schulhof ist für Kinder bis 14 Jahre von Montag bis Freitag 14.30 bis 18.30 erlaubt.",
        "leisure": "playground",
        "max_age": "14",
        "opening_hours": "Mo-Sa 14:30-18:30; Sa 09:30-13:30",
        "surface": "asphalt"
      }
    }
  ]
}