{
  "type": "FeatureCollection",
  "features": [
    {
      "type": "Feature",
      "geometry": {
        "type": "Point",
        "coordinates": [
          8.8000716,
          49.3921726
        ]
      },
      "properties": {
        "osm_id": 611741786,
        "beschränkung": "Kostenfrei",
        "amenity": "toilets",
        "check_date": "2024-10-01",
        "fee": "no",
        "layer": "-1",
        "wheelchair": "yes"
      }
    },
    {
      "type": "Feature",
      "geometry": {
        "type": "Point",
        "coordinates": [
          8.8370383,
          49.398739
        ]
      },
      "properties": {
        "osm_id": 4131026334,
        "beschränkung": "Zahlungspflichtig",
        "amenity": "toilets",
        "fee": "yes",
        "male": "yes",
        "wheelchair": "no"
      }
    },
    {
      "type": "Feature",
      "geometry": {
        "type": "Point",
        "coordinates": [
          8.8372496,
          49.3987615
        ]
      },
      "properties": {
        "osm_id": 4131026336,
        "beschränkung": "Zahlungspflichtig",
        "amenity": "toilets",
        "fee": "yes",
        "female": "yes",
        "wheelchair": "no"
      }
    },
    {
      "type": "Feature",
      "geometry": {
        "type": "Point",
        "coordinates": [
          8.7895262,
          49.3880249
        ]
      },
      "properties": {
        "osm_id": 7693051093,
        "beschränkung": "Zahlungspflichtig",
        "access": "customers",
        "amenity": "toilets",
        "female": "yes",
        "male": "yes",
        "opening_hours": "Apr-Oct: Fr 13:00-19:00; PH,Sa,Su 11:00-19:00",
        "unisex": "yes"
      }
    },
    {
      "type": "Feature",
      "geometry": {
        "type": "Point",
        "coordinates": [
          8.8091401,
          49.3942128
        ]
      },
      "properties": {
        "osm_id": 8449131094,
        "beschränkung": "Zahlungspflichtig",
        "access": "customers",
        "amenity": "toilets",
        "unisex": "yes"
      }
    },
    {
      "type": "Feature",
      "geometry": {
        "type": "Point",
        "coordinates": [
          8.8106731,
          49.3937215
        ]
      },
      "properties": {
        "osm_id": 8449131095,
        "beschränkung": "Zahlungspflichtig",
        "access": "customers",
        "amenity": "toilets",
        "unisex": "yes"
      }
    },
    {
      "type": "Feature",
      "geometry": {
        "type": "Point",
        "coordinates": [
          8.7928176,
          49.3960378
        ]
      },
      "properties": {
        "osm_id": 12224073338,
        "beschränkung": "Zahlungspflichtig",
        "access": "customers",
        "amenity": "toilets"
      }
    },
    {
      "type": "Feature",
      "geometry": {
        "type": "Point",
        "coordinates": [
          8.83669738,
          49.398708920000004
        ]
      },
      "properties": {
        "osm_id": 124220379,
        "beschränkung": "Kostenfrei",
        "amenity": "toilets",
        "building": "hut",
        "fee": "no",
        "female": "yes",
        "fixme": "check access",
        "male": "yes",
        "source": "HiRes aerial imagery",
        "wheelchair": "yes"
      }
    },
    {
      "type": "Feature",
      "geometry": {
        "type": "Point",
        "coordinates": [
          8.797210799999998,
          49.39533632
        ]
      },
      "properties": {
        "osm_id": 1396068847,
        "beschränkung": "Kostenfrei",
        "access": "yes",
        "amenity": "toilets",
        "check_date": "2025-06-15",
        "fee": "no",
        "female": "yes",
        "male": "yes",
        "wheelchair": "no"
      }
    }
  ]
}