{
  "type": "FeatureCollection",
  "features": [
    {
      "type": "Feature",
      "geometry": {
        "type": "Point",
        "coordinates": [
          8.8300133,
          49.3908497
        ]
      },
      "properties": {
        "osm_id": 303544486,
        "beschränkung": "Kostenfrei",
        "amenity": "drinking_water",
        "natural": "spring"
      }
    },
    {
      "type": "Feature",
      "geometry": {
        "type": "Point",
        "coordinates": [
          8.8394328,
          49.3796729
        ]
      },
      "properties": {
        "osm_id": 6680003135,
        "beschränkung": "Kostenfrei",
        "amenity": "drinking_water"
      }
    },
    {
      "type": "Feature",
      "geometry": {
        "type": "Point",
        "coordinates": [
          8.8367772,
          49.4054476
        ]
      },
      "properties": {
        "osm_id": 11887128564,
        "beschränkung": "Kostenfrei",
        "amenity": "drinking_water",
        "fee": "no",
        "man_made": "water_tap"
      }
    },
    {
      "type": "Feature",
      "geometry": {
        "type": "Point",
        "coordinates": [
          8.8365527,
          49.4053422
        ]
      },
      "properties": {
        "osm_id": 11887136472,
        "beschränkung": "Zahlungspflichtig",
        "access": "customers",
        "amenity": "water_point",
        "covered": "no",
        "drinking_water": "yes",
        "fee": "yes"
      }
    }
  ]
}